{
  "type": "FeatureCollection",
  "features": [
    {
      "type": "Feature",
      "properties": {
        "norad_id": 40069,
        "name": "METEOR-M 2",
        "group": "weather",
        "lat": -62.900478124198116,
        "lon": 134.92109853680589,
        "alt_km": 825.8498001499711,
        "timestamp": "2025-12-20T14:38:01.600536+00:00",
        "meta_object_name": "METEOR-M 2",
        "meta_object_id": "2014-037A",
        "meta_epoch": "2025-12-20T05:02:30.153408",
        "meta_mean_motion": 14.21390278,
        "meta_eccentricity": 0.00053472,
        "meta_inclination": 98.49,
        "meta_ra_of_asc_node": 331.5083,
        "meta_arg_of_pericenter": 186.0153,
        "meta_mean_anomaly": 174.0962,
        "meta_ephemeris_type": 0,
        "meta_classification_type": "U",
        "meta_norad_cat_id": 40069,
        "meta_element_set_no": 999,
        "meta_rev_at_epoch": 59389,
        "meta_bstar": 0.00022668774,
        "meta_mean_motion_dot": 4.53e-06,
        "meta_mean_motion_ddot": 0,
        "tle_line1": "1 40069U 14037A   25354.21007122  .00000453  00000+0  22669-3 0  9997",
        "tle_line2": "2 40069  98.4900 331.5083 0005347 186.0153 174.0962 14.21390278593897"
      },
      "geometry": {
        "type": "Point",
        "coordinates": [
          134.92109853680589,
          -62.900478124198116
        ]
      }
    },
    {
      "type": "Feature",
      "properties": {
        "norad_id": 40267,
        "name": "HIMAWARI-8",
        "group": "weather",
        "lat": 0.01469115218686459,
        "lon": 89.61065508666526,
        "alt_km": 35789.57018578759,
        "timestamp": "2025-12-20T14:38:01.600549+00:00",
        "meta_object_name": "HIMAWARI-8",
        "meta_object_id": "2014-060A",
        "meta_epoch": "2025-12-20T03:04:38.558784",
        "meta_mean_motion": 1.00271204,
        "meta_eccentricity": 8.581e-05,
        "meta_inclination": 0.0402,
        "meta_ra_of_asc_node": 141.6545,
        "meta_arg_of_pericenter": 153.7452,
        "meta_mean_anomaly": 340.3966,
        "meta_ephemeris_type": 0,
        "meta_classification_type": "U",
        "meta_norad_cat_id": 40267,
        "meta_element_set_no": 999,
        "meta_rev_at_epoch": 4096,
        "meta_bstar": 0,
        "meta_mean_motion_dot": -2.51e-06,
        "meta_mean_motion_ddot": 0,
        "tle_line1": "1 40267U 14060A   25354.12822406 -.00000251  00000+0  00000+0 0  9991",
        "tle_line2": "2 40267   0.0402 141.6545 0000858 153.7452 340.3966  1.00271204 40968"
      },
      "geometry": {
        "type": "Point",
        "coordinates": [
          89.61065508666526,
          0.01469115218686459
        ]
      }
    },
    {
      "type": "Feature",
      "properties": {
        "norad_id": 40367,
        "name": "FENGYUN 2G",
        "group": "weather",
        "lat": -2.316463685777129,
        "lon": 48.3363869012922,
        "alt_km": 35796.65446219008,
        "timestamp": "2025-12-20T14:38:01.600561+00:00",
        "meta_object_name": "FENGYUN 2G",
        "meta_object_id": "2014-090A",
        "meta_epoch": "2025-12-19T18:56:11.651136",
        "meta_mean_motion": 1.00261653,
        "meta_eccentricity": 0.00026778,
        "meta_inclination": 5.1853,
        "meta_ra_of_asc_node": 75.0175,
        "meta_arg_of_pericenter": 203.1106,
        "meta_mean_anomaly": 193.8582,
        "meta_ephemeris_type": 0,
        "meta_classification_type": "U",
        "meta_norad_cat_id": 40367,
        "meta_element_set_no": 999,
        "meta_rev_at_epoch": 4020,
        "meta_bstar": 0,
        "meta_mean_motion_dot": -2.79e-06,
        "meta_mean_motion_ddot": 0,
        "tle_line1": "1 40367U 14090A   25353.78902374 -.00000279  00000+0  00000+0 0  9999",
        "tle_line2": "2 40367   5.1853  75.0175 0002677 203.1106 193.8582  1.00261653 40200"
      },
      "geometry": {
        "type": "Point",
        "coordinates": [
          48.3363869012922,
          -2.316463685777129
        ]
      }
    },
    {
      "type": "Feature",
      "properties": {
        "norad_id": 40732,
        "name": "METEOSAT-11 (MSG-4)",
        "group": "weather",
        "lat": -2.539336735920849,
        "lon": -41.872545870847425,
        "alt_km": 35788.149843812585,
        "timestamp": "2025-12-20T14:38:01.600573+00:00",
        "meta_object_name": "METEOSAT-11 (MSG-4)",
        "meta_object_id": "2015-034A",
        "meta_epoch": "2025-12-20T03:00:07.388064",
        "meta_mean_motion": 1.00269802,
        "meta_eccentricity": 8.438e-05,
        "meta_inclination": 2.7545,
        "meta_ra_of_asc_node": 71.9831,
        "meta_arg_of_pericenter": 135.8011,
        "meta_mean_anomaly": 295.4135,
        "meta_ephemeris_type": 0,
        "meta_classification_type": "U",
        "meta_norad_cat_id": 40732,
        "meta_element_set_no": 999,
        "meta_rev_at_epoch": 542,
        "meta_bstar": 0,
        "meta_mean_motion_dot": 8.3e-07,
        "meta_mean_motion_ddot": 0,
        "tle_line1": "1 40732U 15034A   25354.12508551  .00000083  00000+0  00000+0 0  9994",
        "tle_line2": "2 40732   2.7545  71.9831 0000843 135.8011 295.4135  1.00269802  5422"
      },
      "geometry": {
        "type": "Point",
        "coordinates": [
          -41.872545870847425,
          -2.539336735920849
        ]
      }
    },
    {
      "type": "Feature",
      "properties": {
        "norad_id": 41105,
        "name": "ELEKTRO-L 2",
        "group": "weather",
        "lat": -4.178320100729561,
        "lon": -65.68989865839569,
        "alt_km": 35771.839768428246,
        "timestamp": "2025-12-20T14:38:01.600585+00:00",
        "meta_object_name": "ELEKTRO-L 2",
        "meta_object_id": "2015-074A",
        "meta_epoch": "2025-12-20T01:10:35.962176",
        "meta_mean_motion": 1.00272605,
        "meta_eccentricity": 0.00035244,
        "meta_inclination": 6.243,
        "meta_ra_of_asc_node": 72.7416,
        "meta_arg_of_pericenter": 209.3855,
        "meta_mean_anomaly": 169.9333,
        "meta_ephemeris_type": 0,
        "meta_classification_type": "U",
        "meta_norad_cat_id": 41105,
        "meta_element_set_no": 999,
        "meta_rev_at_epoch": 3671,
        "meta_bstar": 0,
        "meta_mean_motion_dot": -9.8e-07,
        "meta_mean_motion_ddot": 0,
        "tle_line1": "1 41105U 15074A   25354.04902734 -.00000098  00000+0  00000+0 0  9992",
        "tle_line2": "2 41105   6.2430  72.7416 0003524 209.3855 169.9333  1.00272605 36715"
      },
      "geometry": {
        "type": "Point",
        "coordinates": [
          -65.68989865839569,
          -4.178320100729561
        ]
      }
    },
    {
      "type": "Feature",
      "properties": {
        "norad_id": 41752,
        "name": "INSAT-3DR",
        "group": "weather",
        "lat": -0.08446656836695544,
        "lon": 23.078951688325887,
        "alt_km": 35808.078317454165,
        "timestamp": "2025-12-20T14:38:01.600597+00:00",
        "meta_object_name": "INSAT-3DR",
        "meta_object_id": "2016-054A",
        "meta_epoch": "2025-12-20T03:18:35.620128",
        "meta_mean_motion": 1.00271606,
        "meta_eccentricity": 0.00141282,
        "meta_inclination": 0.1099,
        "meta_ra_of_asc_node": 86.4008,
        "meta_arg_of_pericenter": 185.1438,
        "meta_mean_anomaly": 301.0691,
        "meta_ephemeris_type": 0,
        "meta_classification_type": "U",
        "meta_norad_cat_id": 41752,
        "meta_element_set_no": 999,
        "meta_rev_at_epoch": 3402,
        "meta_bstar": 0,
        "meta_mean_motion_dot": -5.3e-07,
        "meta_mean_motion_ddot": 0,
        "tle_line1": "1 41752U 16054A   25354.13791227 -.00000053  00000+0  00000+0 0  9993",
        "tle_line2": "2 41752   0.1099  86.4008 0014128 185.1438 301.0691  1.00271606 34024"
      },
      "geometry": {
        "type": "Point",
        "coordinates": [
          23.078951688325887,
          -0.08446656836695544
        ]
      }
    },
    {
      "type": "Feature",
      "properties": {
        "norad_id": 41836,
        "name": "HIMAWARI-9",
        "group": "weather",
        "lat": 0.04567291907607411,
        "lon": 89.70763829240924,
        "alt_km": 35788.566600052,
        "timestamp": "2025-12-20T14:38:01.600609+00:00",
        "meta_object_name": "HIMAWARI-9",
        "meta_object_id": "2016-064A",
        "meta_epoch": "2025-12-19T21:38:38.659776",
        "meta_mean_motion": 1.00273489,
        "meta_eccentricity": 0.00013958,
        "meta_inclination": 0.0182,
        "meta_ra_of_asc_node": 355.7972,
        "meta_arg_of_pericenter": 334.5859,
        "meta_mean_anomaly": 223.7728,
        "meta_ephemeris_type": 0,
        "meta_classification_type": "U",
        "meta_norad_cat_id": 41836,
        "meta_element_set_no": 999,
        "meta_rev_at_epoch": 3341,
        "meta_bstar": 0,
        "meta_mean_motion_dot": 0,
        "meta_mean_motion_ddot": 0,
        "tle_line1": "1 41836U 16064A   25353.90183634  .00000000  00000+0  00000+0 0  9999",
        "tle_line2": "2 41836   0.0182 355.7972 0001395 334.5859 223.7728  1.00273489 33414"
      },
      "geometry": {
        "type": "Point",
        "coordinates": [
          89.70763829240924,
          0.04567291907607411
        ]
      }
    }
  ]
}